[{"OBJECT_NAME":"STARLINK-5893","OBJECT_ID":"2023-037AQ","EPOCH":"2026-03-09T21:53:15.441792","MEAN_MOTION":14.98316612,"ECCENTRICITY":0.00025518,"INCLINATION":69.9981,"RA_OF_ASC_NODE":264.0104,"ARG_OF_PERICENTER":278.3989,"MEAN_ANOMALY":81.688,"EPHEMERIS_TYPE":0,"CLASSIFICATION_TYPE":"U","NORAD_CAT_ID":55952,"ELEMENT_SET_NO":999,"REV_AT_EPOCH":16450,"BSTAR":4.7600036e-5,"MEAN_MOTION_DOT":4.75e-6,"MEAN_MOTION_DDOT":0},{"OBJECT_NAME":"ICEYE-X51","OBJECT_ID":"2025-052AZ","EPOCH":"2026-03-09T22:06:54.407520","MEAN_MOTION":15.00892494,"ECCENTRICITY":0.00020982,"INCLINATION":97.7349,"RA_OF_ASC_NODE":324.3635,"ARG_OF_PERICENTER":65.1031,"MEAN_ANOMALY":295.041,"EPHEMERIS_TYPE":0,"CLASSIFICATION_TYPE":"U","NORAD_CAT_ID":63257,"ELEMENT_SET_NO":999,"REV_AT_EPOCH":5391,"BSTAR":0.00046355347,"MEAN_MOTION_DOT":5.842e-5,"MEAN_MOTION_DDOT":0}]
